NORAD_CAT_ID,OBJECT_NAME,OBJECT_TYPE,EPOCH,MEAN_MOTION,ECCENTRICITY,INCLINATION,RA_OF_ASC_NODE,ARG_OF_PERICENTER,MEAN_ANOMALY,BSTAR,MEAN_MOTION_DOT,MEAN_MOTION_DDOT,TLE_LINE0,TLE_LINE1,TLE_LINE2,SEMIMAJOR_AXIS,PERIOD,APOGEE,PERIGEE,DECAYED
53713.0,STARLINK-4698,PAYLOAD,2024-04-25 21:59:12,15.08836725,0.0001081,53.2185,78.8243,83.6788,276.4327,9.5662e-05,1.235e-05,0.0,0 STARLINK-4698,1 53713U 22107P   24116.91611701  .00001235  00000-0  95662-4 0  9994,2 53713  53.2185  78.8243 0001081  83.6788 276.4327 15.08836725 91339,6917.89,95.438,540.503,539.008,0.0
53713.0,STARLINK-4698,PAYLOAD,2024-04-26 02:45:22,15.08838629,0.000106,53.2179,77.9332,99.5648,260.5464,2.0167e-05,3.3e-07,0.0,0 STARLINK-4698,1 53713U 22107P   24117.11483882  .00000033  00000-0  20167-4 0  9997,2 53713  53.2179  77.9332 0001060  99.5648 260.5464 15.08838629 90924,6917.885,95.438,540.483,539.016,0.0
53713.0,STARLINK-4698,PAYLOAD,2024-04-26 13:53:04,15.08834164,0.000105,53.2173,75.8501,107.0765,253.0342,6.5097e-05,7.48e-06,0.0,0 STARLINK-4698,1 53713U 22107P   24117.57852047  .00000748  00000-0  65097-4 0  9994,2 53713  53.2173  75.8501 0001050 107.0765 253.0342 15.08834164 91436,6917.898,95.438,540.49,539.037,0.0
53713.0,STARLINK-4698,PAYLOAD,2024-04-27 04:11:31,15.08849842,0.0001061,53.217,73.1713,87.604,272.5074,9.5492e-06,-1.36e-06,0.0,0 STARLINK-4698,1 53713U 22107P   24118.17467351 -.00000136  00000-0  95492-5 0  9996,2 53713  53.2170  73.1713 0001061  87.6040 272.5074 15.08849842 91088,6917.85,95.437,540.449,538.981,0.0
53713.0,STARLINK-4698,PAYLOAD,2024-04-27 21:40:47,15.08827966,0.0001066,53.218,69.9023,80.5232,279.5881,-2.8996e-05,-7.49e-06,0.0,0 STARLINK-4698,1 53713U 22107P   24118.90333039 -.00000749  00000-0 -28996-4 0  9997,2 53713  53.2180  69.9023 0001066  80.5232 279.5881 15.08827966 91194,6917.917,95.438,540.52,539.045,0.0
53713.0,STARLINK-4698,PAYLOAD,2024-04-28 02:26:57,15.08812,0.0001166,53.2169,69.0098,85.3109,274.8016,0.00017087,2.431e-05,0.0,0 STARLINK-4698,1 53713U 22107P   24119.10205525  .00002431  00000-0  17087-3 0  9994,2 53713  53.2169  69.0098 0001166  85.3109 274.8016 15.08812000 91226,6917.966,95.439,540.638,539.024,0.0
53713.0,STARLINK-4698,PAYLOAD,2024-04-28 05:37:43,15.08829963,0.0001212,53.2175,68.4169,94.457,265.6561,-1.3472e-05,-5.02e-06,0.0,0 STARLINK-4698,1 53713U 22107P   24119.23453070 -.00000502  00000-0 -13472-4 0  9992,2 53713  53.2175  68.4169 0001212  94.4570 265.6561 15.08829963 91241,6917.911,95.438,540.615,538.938,0.0
53713.0,STARLINK-4698,PAYLOAD,2024-04-28 13:34:38,15.08840232,0.0001052,53.2171,66.9279,84.7945,275.3167,6.0174e-05,6.7e-06,0.0,0 STARLINK-4698,1 53713U 22107P   24119.56572173  .00000670  00000-0  60174-4 0  9999,2 53713  53.2171  66.9279 0001052  84.7945 275.3167 15.08840232 91738,6917.88,95.438,540.472,539.017,0.0
53713.0,STARLINK-4698,PAYLOAD,2024-04-28 19:56:11,15.08839623,0.0001185,53.216,65.7381,90.9808,269.132,1.5846e-05,-3.6e-07,0.0,0 STARLINK-4698,1 53713U 22107P   24119.83068367 -.00000036  00000-0  15846-4 0  9997,2 53713  53.2160  65.7381 0001185  90.9808 269.1320 15.08839623 91331,6917.882,95.438,540.566,538.927,0.0
53713.0,STARLINK-4698,PAYLOAD,2024-04-29 13:25:25,15.08838187,0.000108,53.2169,62.4671,79.175,280.9364,8.4171e-05,1.052e-05,0.0,0 STARLINK-4698,1 53713U 22107P   24120.55932247  .00001052  00000-0  84171-4 0  9990,2 53713  53.2169  62.4671 0001080  79.1750 280.9364 15.08838187 91888,6917.886,95.438,540.498,539.004,0.0
53713.0,STARLINK-4698,PAYLOAD,2024-04-29 19:46:58,15.08831425,0.0001245,53.2174,61.2779,87.0074,273.1061,0.000116,1.558e-05,0.0,0 STARLINK-4698,1 53713U 22107P   24120.82428573  .00001558  00000-0  11600-3 0  9999,2 53713  53.2174  61.2779 0001245  87.0074 273.1061 15.08831425 91921,6917.907,95.438,540.633,538.91,0.0
53713.0,STARLINK-4698,PAYLOAD,2024-04-30 05:19:16,15.08845279,0.000145,53.2186,59.4917,98.0533,262.0623,0.00020413,2.963e-05,0.0,0 STARLINK-4698,1 53713U 22107P   24121.22171502  .00002963  00000-0  20413-3 0  9994,2 53713  53.2186  59.4917 0001450  98.0533 262.0623 15.08845279 91548,6917.864,95.437,540.732,538.726,0.0
53713.0,STARLINK-4698,PAYLOAD,2024-04-30 13:16:12,15.08839793,0.0001389,53.2195,58.0046,90.5543,269.5608,9.2131e-05,1.179e-05,0.0,0 STARLINK-4698,1 53713U 22107P   24121.55292139  .00001179  00000-0  92131-4 0  9995,2 53713  53.2195  58.0046 0001389  90.5543 269.5608 15.08839793 91599,6917.881,95.438,540.707,538.785,0.0
53713.0,STARLINK-4698,PAYLOAD,2024-05-01 05:10:04,15.08838392,0.0001602,53.2195,55.0314,124.1998,235.9146,-3.7062e-05,-8.78e-06,0.0,0 STARLINK-4698,1 53713U 22107P   24122.21532601 -.00000878  00000-0 -37062-4 0  9999,2 53713  53.2195  55.0314 0001602 124.1998 235.9146 15.08838392 92139,6917.885,95.438,540.859,538.642,0.0
53713.0,STARLINK-4698,PAYLOAD,2024-05-02 05:00:50,15.08845035,0.0001136,53.2172,50.5719,99.4069,260.7052,-3.9639e-05,-9.19e-06,0.0,0 STARLINK-4698,1 53713U 22107P   24123.20892265 -.00000919  00000-0 -39639-4 0  9992,2 53713  53.2172  50.5719 0001136  99.4069 260.7052 15.08845035 92288,6917.865,95.437,540.516,538.944,0.0
53713.0,STARLINK-4698,PAYLOAD,2024-05-03 11:13:09,15.08847267,0.0001191,53.2178,44.9234,81.8199,278.2929,6.0994e-05,6.83e-06,0.0,0 STARLINK-4698,1 53713U 22107P   24124.46747581  .00000683  00000-0  60994-4 0  9995,2 53713  53.2178  44.9234 0001191  81.8199 278.2929 15.08847267 92032,6917.858,95.437,540.547,538.899,0.0
53713.0,STARLINK-4698,PAYLOAD,2024-05-03 22:20:53,15.08847998,0.0001453,53.2187,42.8471,114.3934,245.721,-0.0002504,-4.272e-05,0.0,0 STARLINK-4698,1 53713U 22107P   24124.93117180 -.00004272  00000-0 -25040-3 0  9995,2 53713  53.2187  42.8471 0001453 114.3934 245.7210 15.08847998 92541,6917.856,95.437,540.726,538.716,0.0
53713.0,STARLINK-4698,PAYLOAD,2024-05-04 01:31:39,15.08828122,0.0001183,53.2174,42.2467,91.6994,268.4134,-0.00010437,-1.948e-05,0.0,0 STARLINK-4698,1 53713U 22107P   24125.06365629 -.00001948  00000-0 -10437-3 0  9994,2 53713  53.2174  42.2467 0001183  91.6994 268.4134 15.08828122 92128,6917.917,95.438,540.6,538.963,0.0
53713.0,STARLINK-4698,PAYLOAD,2024-05-04 17:25:30,15.08834688,0.0001205,53.2182,39.272,96.5584,263.5545,-2.7796e-05,-7.3e-06,0.0,0 STARLINK-4698,1 53713U 22107P   24125.72605197 -.00000730  00000-0 -27796-4 0  9999,2 53713  53.2182  39.2720 0001205  96.5584 263.5545 15.08834688 92226,6917.897,95.438,540.595,538.928,0.0
53713.0,STARLINK-4698,PAYLOAD,2024-05-05 04:33:12,15.08842888,0.0001135,53.218,37.1923,92.9359,267.1763,-6.493e-05,-1.321e-05,0.0,0 STARLINK-4698,1 53713U 22107P   24126.18972895 -.00001321  00000-0 -64930-4 0  9990,2 53713  53.2180  37.1923 0001135  92.9359 267.1763 15.08842888 92298,6917.872,95.437,540.522,538.951,0.0
53713.0,STARLINK-4698,PAYLOAD,2024-05-05 22:02:27,15.08832883,0.0001194,53.2185,33.9213,100.0215,260.0912,0.00011843,1.597e-05,0.0,0 STARLINK-4698,1 53713U 22107P   24126.91836946  .00001597  00000-0  11843-3 0  9994,2 53713  53.2185  33.9213 0001194 100.0215 260.0912 15.08832883 92849,6917.902,95.438,540.593,538.941,0.0
53713.0,STARLINK-4698,PAYLOAD,2024-05-06 02:48:36,15.08830404,0.0001067,53.218,33.0285,94.4178,265.6936,5.9934e-05,6.66e-06,0.0,0 STARLINK-4698,1 53713U 22107P   24127.11709407  .00000666  00000-0  59934-4 0  9998,2 53713  53.2180  33.0285 0001067  94.4178 265.6936 15.08830404 92436,6917.91,95.438,540.513,539.037,0.0
53713.0,STARLINK-4698,PAYLOAD,2024-05-06 10:45:32,15.0883787,9.67e-05,53.2174,31.5421,96.6037,263.5065,0.0001526,2.142e-05,0.0,0 STARLINK-4698,1 53713U 22107P   24127.44828713  .00002142  00000-0  15260-3 0  9990,2 53713  53.2174  31.5421 0000967  96.6037 263.5065 15.08837870 92489,6917.887,95.438,540.421,539.083,0.0
53713.0,STARLINK-4698,PAYLOAD,2024-05-06 21:53:14,15.08837944,0.0001055,53.2181,29.4609,92.546,267.5653,1.9225e-05,1.8e-07,0.0,0 STARLINK-4698,1 53713U 22107P   24127.91197183  .00000018  00000-0  19225-4 0  9998,2 53713  53.2181  29.4609 0001055  92.5460 267.5653 15.08837944 92990,6917.887,95.438,540.482,539.022,0.0
53713.0,STARLINK-4698,PAYLOAD,2024-05-07 02:39:24,15.08830746,0.0001113,53.2182,28.5685,80.1777,279.934,-4.9316e-05,-1.072e-05,0.0,0 STARLINK-4698,1 53713U 22107P   24128.11069945 -.00001072  00000-0 -49316-4 0  9992,2 53713  53.2182  28.5685 0001113  80.1777 279.9340 15.08830746 92582,6917.909,95.438,540.544,539.004,0.0
53713.0,STARLINK-4698,PAYLOAD,2024-05-07 10:36:20,15.08834504,0.000115,53.2187,27.0826,82.4058,277.7065,-3.7231e-05,-8.8e-06,0.0,0 STARLINK-4698,1 53713U 22107P   24128.44189825 -.00000880  00000-0 -37231-4 0  9997,2 53713  53.2187  27.0826 0001150  82.4058 277.7065 15.08834504 93077,6917.897,95.438,540.558,538.967,0.0
53713.0,STARLINK-4698,PAYLOAD,2024-05-07 21:44:01,15.08838882,5.02e-05,53.2184,25.0024,72.5274,287.5773,5.8427e-05,6.42e-06,0.0,0 STARLINK-4698,1 53713U 22107P   24128.90556948  .00000642  00000-0  58427-4 0  9996,2 53713  53.2184  25.0024 0000502  72.5274 287.5773 15.08838882 93148,6917.884,95.438,540.096,539.402,0.0
53713.0,STARLINK-4698,PAYLOAD,2024-05-07 23:19:24,15.08845006,0.0001051,53.2179,24.7064,76.7569,283.3541,9.9628e-05,1.298e-05,0.0,0 STARLINK-4698,1 53713U 22107P   24128.97180558  .00001298  00000-0  99628-4 0  9999,2 53713  53.2179  24.7064 0001051  76.7569 283.3541 15.08845006 92710,6917.865,95.437,540.457,539.003,0.0
53713.0,STARLINK-4698,PAYLOAD,2024-05-08 10:27:06,15.08843413,9.81e-05,53.2163,22.6257,67.9459,292.1638,1.902e-05,1.5e-07,0.0,0 STARLINK-4698,1 53713U 22107P   24129.43548846  .00000015  00000-0  19020-4 0  9993,2 53713  53.2163  22.6257 0000981  67.9459 292.1638 15.08843413 93227,6917.87,95.437,540.414,539.056,0.0
53713.0,STARLINK-4698,PAYLOAD,2024-05-08 21:34:48,15.08835876,0.0001304,53.2183,20.5432,74.6345,285.4792,-1.7371e-05,-5.64e-06,0.0,0 STARLINK-4698,1 53713U 22107P   24129.89917522 -.00000564  00000-0 -17371-4 0  9992,2 53713  53.2183  20.5432 0001304  74.6345 285.4792 15.08835876 92858,6917.893,95.438,540.66,538.856,0.0
